#aV2014  7 11  0  0  0.00000000     288 DD+AD WGS84 FIT  NGA
## 1800 432000.00000000   300.00000000 56849 0.0000000000000
+   32     1  2  3  4  5  6  7  8  9 10 11 12 13 14 15 16 17
+         18 19 20 21 22 23 24 25 26 27 28 29 30 31 32  0  0
+          0  0  0  0  0  0  0  0  0  0  0  0  0  0  0  0  0
+          0  0  0  0  0  0  0  0  0  0  0  0  0  0  0  0  0
+          0  0  0  0  0  0  0  0  0  0  0  0  0  0  0  0  0
++         2  2  2  2  2  2  2  2  2  2  2  2  2  2  2  2  2
++         2  2  2  2  2  2  2  2  2  2  2  2  2  2  2  0  0
++         0  0  0  0  0  0  0  0  0  0  0  0  0  0  0  0  0
++         0  0  0  0  0  0  0  0  0  0  0  0  0  0  0  0  0
++         0  0  0  0  0  0  0  0  0  0  0  0  0  0  0  0  0
%c cc cc ccc ccc cccc cccc cccc cccc ccccc ccccc ccccc ccccc
%c cc cc ccc ccc cccc cccc cccc cccc ccccc ccccc ccccc ccccc
%f  0.0000000  0.000000000  0.00000000000  0.000000000000000
%f  0.0000000  0.000000000  0.00000000000  0.000000000000000
%i    0    0    0    0      0      0      0      0         0
%i    0    0    0    0      0      0      0      0         0
/*      NGA, ST. LOUIS,MO.                                  
/*   EPHEMERIS COMPUTED FROM  1 DAYS OF DATA                
/*   EPOCHA SMOOTHER                                       
/* CCCCCCCCCCCCCCCCCCCCCCCCCCCCCCCCCCCCCCCCCCCCCCCCCCCCCCCCC
*  2014  7 11 21  0  0.00000000
P  1  14231.838151  -5834.003389  21607.286017     17.424421                    
V  1   5692.234111  26938.792272   3663.234801      0.008482                    
P  2 -13745.531892 -19068.540620 -12519.795771    506.187944                    
V  2  -1122.042727 -16403.267127  25116.528331      0.021838                    
P  3  25845.811118   6200.142584  -2322.203722    389.273986                    
V  3  -2817.711615   2896.177192 -30996.642405      0.049914                    
P  4  -1106.137096 -25668.934374   5791.139130      7.384551                    
V  4   5217.230629   6899.810017  30252.571243     -0.000001                    
P  5 -15308.814095  -6428.001822 -20796.836920   -358.862090                    
V  5  19154.802130 -18104.838322  -8352.072024      0.030757                    
P  6  -7197.295685 -25423.430986  -2763.024596      1.129660                    
V  6   2020.662257  -3985.326614  31497.412030     -0.024241                    
P  7   7755.427693 -19338.376023 -16186.916845    367.605795                    
V  7   5474.525476  20161.311679 -21701.668537      0.042888                    
P  8   4938.267682 -23548.006547 -10344.953194     14.668425                    
V  8   3001.675472  13358.134204 -29128.385496      0.001649                    
P  9  -1316.219626 -25915.977698  -5608.126396    153.243159                    
V  9   3403.534668   5921.414869 -31307.573134      0.569710                    
P 10   -555.812934 -18242.887782 -19493.957023   -133.223064                    
V 10  19437.254536 -14561.082778  13730.705094     -0.016160                    
P 11  18320.622536   1508.896703  18731.520778   -504.466769                    
V 11  10781.127520  22729.316532 -11859.810816     -0.030319                    
P 12 -22358.441446   8871.510371  10936.394842    217.428103                    
V 12   9705.651993 -10321.079500  28229.245929      0.025416                    
P 13  15556.448963  -7850.112194 -20221.311918    -19.548136                    
V 13  22639.397583  11324.436603  12934.234765     -0.039181                    
P 14   3703.091354  16811.386599  20495.442848    155.360418                    
V 14 -23760.221768  -9146.191359  11777.059497     -0.035577                    
P 15 -25823.845052  -2870.099759   6160.859548   -190.417756                    
V 15  -6634.863594  -5287.079143 -29706.448799     -0.022111                    
P 16  14659.541839   6379.820585 -21334.696387   -208.132657                    
V 16 -20883.352751  16811.332104  -8999.282359      0.021996                    
P 17  -4255.891308 -16720.233416  20514.340187   -108.158548                    
V 17  23963.507828   8395.985649  11745.172038     -0.029310                    
P 18 -14799.051162  20748.683035   7309.814500    330.966430                    
V 18  -9156.670798   3014.570705 -29254.494325      0.023922                    
P 19  25202.993741   7997.871095   4244.112278   -467.620790                    
V 19   4127.539289   4269.901279 -30989.307445     -0.020290                    
P 20  21569.540591 -13079.758736   8021.872331    209.571622                    
V 20  -4796.185352  10058.519677  28698.523008      0.041609                    
P 21  -4451.755179  22611.545293 -12164.035017   -372.075929                    
V 21  -6899.364950 -15608.615361 -25613.783287     -0.021399                    
P 22  -3423.877563  20289.441573  16925.644507    249.391892                    
V 22 -17473.748295  12376.345996 -18775.253858      0.031563                    
P 23  23164.495059  -1878.018204 -13125.167487    -35.772720                    
V 23  15069.209624   7554.972635  24865.416616     -0.030090                    
P 24 -15357.022997   1104.869565  21625.734955    -31.634875                    
V 24  -5573.749017 -26950.286334  -2484.945904     -0.006608                    
P 25 -19746.119458  17652.611542   -161.801865     24.808060                    
V 25  -1703.746631  -1753.840768  32182.612866     -0.001894                    
P 26 -22659.586322 -13593.797455  -4571.439769     17.712409                    
V 26   5324.792480    181.835042 -31191.071692     -0.125247                    
P 27  22318.510643  12617.550553  -7076.950880     -2.982098                    
V 27  -9287.345051   -448.383223 -30073.175176      0.030026                    
P 28   8660.529822 -19906.854949  15814.830967    368.896917                    
V 28  15830.224388 -10572.374395 -22985.563570      0.028472                    
P 29 -15276.069242   8614.296928 -19900.776042    545.994267                    
V 29 -23153.140015 -10321.688495  13326.975544      0.026729                    
P 30   2048.478658 -25435.826444  -7299.498397    -30.912510                    
V 30   3854.167498   8868.620692 -29894.387572     -0.064090                    
P 31   7219.441620  24989.690971  -4317.779878    333.565878                    
V 31  -1501.527902   6050.879223  31711.701157     -0.002729                    
P 32  20121.427577    391.357016  17100.156623   -387.447734                    
V 32 -16204.859168  14869.053255  19320.250439      0.083195                    
EOF
